OBJECT_NAME,OBJECT_ID,EPOCH,MEAN_MOTION,ECCENTRICITY,INCLINATION,RA_OF_ASC_NODE,ARG_OF_PERICENTER,MEAN_ANOMALY,EPHEMERIS_TYPE,CLASSIFICATION_TYPE,NORAD_CAT_ID,ELEMENT_SET_NO,REV_AT_EPOCH,BSTAR,MEAN_MOTION_DOT,MEAN_MOTION_DDOT
PERSEUS-M1,2014-033AF,2026-06-28T19:27:40.176288,14.95670765,.00098709,97.9649,124.1337,257.6288,102.3828,0,U,40039,999,65237,.14371432E-3,.1539E-4,0
POLYITAN-1,2014-033AJ,2026-06-28T19:09:11.793888,15.33660497,.000884,98.0938,207.1603,109.6979,250.5216,0,U,40042,999,65537,.56431824E-3,.18322E-3,0
TIGRISAT,2014-033AK,2026-06-28T21:44:49.449696,14.85202555,.00499782,97.7845,329.6501,37.6049,322.8644,0,U,40043,999,64736,.20552812E-3,.1746E-4,0
AEROCUBE 6A,2014-033AM,2026-06-28T21:53:32.681184,14.98204213,.00380377,97.7224,346.7377,337.1262,22.8265,0,U,40045,999,64837,.35097169E-3,.4167E-4,0
AEROCUBE 6B,2014-033AN,2026-06-28T21:40:27.242976,14.99668419,.00376733,97.7220,346.5449,328.0885,31.8056,0,U,40046,999,64851,.33163568E-3,.4087E-4,0
CANX-4,2014-034C,2026-06-28T21:44:04.689312,14.81284612,.00122689,98.3107,55.6481,339.5149,20.5569,0,U,40055,999,64626,.12093198E-3,.887E-5,0
CANX-5,2014-034D,2026-06-28T15:12:32.645088,14.81301414,.00122971,98.3110,55.4105,340.6401,19.4342,0,U,40056,999,63703,.12131473E-3,.89E-5,0
UKUBE-1,2014-037F,2026-06-28T22:26:49.774848,15.13729647,.00032181,98.4234,184.4427,113.3260,246.8307,0,U,40074,999,65033,.40921479E-3,.7298E-4,0
BRITE-PL2 (HEWELIUSZ),2014-049B,2026-06-28T21:19:08.232672,14.94635715,.00152515,97.9109,291.9792,72.6737,287.6150,0,U,40119,999,64319,.14208398E-3,.1483E-4,0
AEROCUBE 5C,2015-058B,2026-06-28T12:03:44.631360,14.91497504,.01313158,64.7660,227.3878,58.8513,302.5399,0,U,40965,999,36734,.17770616E-3,.1924E-4,0
AEROCUBE 7,2015-058C,2026-06-28T19:13:13.578240,14.95790646,.0121065,64.7603,208.4376,57.0952,304.1741,0,U,40966,999,36769,.2536197E-3,.3105E-4,0
FOX-1A (AO-85),2015-058D,2026-06-28T16:30:43.685568,14.91015719,.01311551,64.7745,243.2418,52.1162,309.1726,0,U,40967,999,11528,.17487412E-3,.1863E-4,0
SINOD-D 1,2015-058E,2026-06-28T13:50:40.363584,14.95968824,.01198131,64.7737,223.2432,48.5852,312.5483,0,U,40968,999,11836,.23786569E-3,.2906E-4,0
SNAP-3 ALICE,2015-058G,2026-06-28T21:27:46.917792,15.63087219,.00243318,64.7503,63.3819,3.6059,356.5258,0,U,40970,999,11871,.14118891E-2,.133211E-2,0
LMRST-SAT,2015-058H,2026-06-28T18:43:49.424160,14.90633145,.01327643,64.7751,239.3147,54.0988,307.2361,0,U,40971,999,11528,.16918109E-3,.1785E-4,0
SNAP-3 EDDIE,2015-058J,2026-06-28T22:32:10.135680,15.64258823,.00249623,64.7417,53.8633,6.8490,353.2994,0,U,40972,999,12086,.13268448E-2,.131177E-2,0
PROPCUBE 3,2015-058K,2026-06-28T12:28:32.880000,14.94311944,.01247003,64.7668,217.1270,55.4370,305.8436,0,U,40973,999,11649,.22100519E-3,.2595E-4,0
BISONSAT,2015-058L,2026-06-28T23:17:49.492608,15.16493029,.00803454,64.7575,135.5384,42.5827,318.1489,0,U,40974,999,11740,.70703472E-3,.1485E-3,0
SNAP-3 JIMI,2015-058M,2026-06-27T08:58:30.882720,15.02391842,.0106706,64.7629,187.5396,51.2733,309.7864,0,U,40975,999,11575,.42413997E-3,.6192E-4,0
PROPCUBE 1 (FLORA),2015-058N,2026-06-28T22:44:20.176800,14.89267911,.01314073,64.7747,258.7869,56.3399,305.0165,0,U,40976,999,11801,.17015495E-3,.1722E-4,0
SINOD-D 3,2015-058P,2026-06-28T13:16:46.574976,14.94075866,.01199088,64.7716,240.3251,53.6219,307.5885,0,U,40977,999,11645,.22117345E-3,.2549E-4,0
HORYU-4,2016-012D,2026-06-28T19:58:52.188672,16.13056645,.00097083,30.9816,352.6613,339.1156,20.9113,0,U,41340,999,57268,.11400363E-2,.1386511E-1,.13186712E-2
RAVAN,2016-067B,2026-06-28T22:43:31.277856,15.55829275,.0002288,97.9877,70.8863,346.7173,13.4019,0,U,41849,999,52952,.72823544E-3,.50465E-3,0
CELTEE 1,2016-067C,2026-06-28T20:40:08.249376,15.19791692,.00015862,98.0660,47.2246,127.7116,232.4261,0,U,41850,999,52765,.22926036E-3,.4831E-4,0
OPTICUBE 04,2016-067D,2026-06-28T13:05:48.750432,15.09705927,.00169571,98.0688,32.4218,80.4174,279.8969,0,U,41851,999,52688,.16482718E-3,.2593E-4,0
AEROCUBE 8D,2016-067E,2026-06-28T13:50:18.435264,15.24552278,.00050398,98.0671,50.6147,96.4630,263.7179,0,U,41852,999,52780,.29439665E-3,.717E-4,0
AEROCUBE 8C,2016-067F,2026-06-28T14:23:35.515968,15.24803516,.00058987,98.0542,47.8522,37.3241,322.8403,0,U,41853,999,52780,.29050432E-3,.7129E-4,0
CORVUS BC2,2017-042X,2026-06-28T22:51:51.774048,15.06365407,.00144612,97.4067,340.8458,74.3258,285.9564,0,U,42846,999,48883,.16878704E-3,.243E-4,0
CORVUS BC1,2017-042Y,2026-06-28T16:19:39.431136,15.06527110,.00128682,97.4095,341.4054,53.7723,306.4692,0,U,42847,999,48882,.20003303E-3,.2902E-4,0
MAKERSAT 0,2017-073D,2026-06-28T14:36:00.010080,15.32461094,.01048301,97.4612,62.2183,231.6102,127.5690,0,U,43016,999,46821,.43423246E-3,.16135E-3,0
